NORAD_CAT_ID,OBJECT_NAME,OBJECT_TYPE,EPOCH,MEAN_MOTION,ECCENTRICITY,INCLINATION,RA_OF_ASC_NODE,ARG_OF_PERICENTER,MEAN_ANOMALY,BSTAR,MEAN_MOTION_DOT,MEAN_MOTION_DDOT,TLE_LINE0,TLE_LINE1,TLE_LINE2,SEMIMAJOR_AXIS,PERIOD,APOGEE,PERIGEE,DECAYED
53401.0,STARLINK-4525,PAYLOAD,2024-03-15 13:06:55,15.08841304,0.0001405,53.2158,134.9274,77.2307,282.8842,7.4428e-05,8.97e-06,0.0,0 STARLINK-4525,1 53401U 22097P   24075.54648094  .00000897  00000-0  74428-4 0  9994,2 53401  53.2158 134.9274 0001405  77.2307 282.8842 15.08841304 89190,6917.876,95.437,540.713,538.769,0.0
53401.0,STARLINK-4525,PAYLOAD,2024-03-16 12:57:43,15.08842567,0.0001353,53.2154,130.4652,86.9436,273.1711,6.9823e-05,8.24e-06,0.0,0 STARLINK-4525,1 53401U 22097P   24076.54008283  .00000824  00000-0  69823-4 0  9998,2 53401  53.2154 130.4652 0001353  86.9436 273.1711 15.08842567 88851,6917.873,95.437,540.674,538.802,0.0
53401.0,STARLINK-4525,PAYLOAD,2024-03-17 09:37:44,15.08844643,0.0001453,53.2155,126.5994,84.4402,275.6756,0.0002001,2.898e-05,0.0,0 STARLINK-4525,1 53401U 22097P   24077.40120422  .00002898  00000-0  20010-3 0  9991,2 53401  53.2155 126.5994 0001453  84.4402 275.6756 15.08844643 89476,6917.866,95.437,540.736,538.726,0.0
53401.0,STARLINK-4525,PAYLOAD,2024-03-18 03:06:58,15.08844162,0.0001419,53.2148,123.33,84.5306,275.5848,0.00013543,1.868e-05,0.0,0 STARLINK-4525,1 53401U 22097P   24078.12984468  .00001868  00000-0  13543-3 0  9998,2 53401  53.2148 123.3300 0001419  84.5306 275.5848 15.08844162 89095,6917.868,95.437,540.714,538.751,0.0
53401.0,STARLINK-4525,PAYLOAD,2024-03-18 09:28:31,15.08844088,0.0001438,53.2151,122.1402,85.5794,274.5362,0.0001153,1.548e-05,0.0,0 STARLINK-4525,1 53401U 22097P   24078.39480403  .00001548  00000-0  11530-3 0  9996,2 53401  53.2151 122.1402 0001438  85.5794 274.5362 15.08844088 89628,6917.868,95.437,540.728,538.738,0.0
53401.0,STARLINK-4525,PAYLOAD,2024-03-19 09:19:18,15.08843784,0.000172,53.2167,117.6806,105.5407,254.5775,9.2119e-05,1.178e-05,0.0,0 STARLINK-4525,1 53401U 22097P   24079.38840321  .00001178  00000-0  92119-4 0  9997,2 53401  53.2167 117.6806 0001720 105.5407 254.5775 15.08843784 89774,6917.869,95.437,540.924,538.544,0.0
53401.0,STARLINK-4525,PAYLOAD,2024-03-19 12:30:03,15.08849274,0.000158,53.2161,117.0831,105.234,254.8827,0.00011072,1.475e-05,0.0,0 STARLINK-4525,1 53401U 22097P   24079.52087885  .00001475  00000-0  11072-3 0  9999,2 53401  53.2161 117.0831 0001580 105.2340 254.8827 15.08849274 89307,6917.852,95.437,540.81,538.624,0.0
53401.0,STARLINK-4525,PAYLOAD,2024-03-20 09:10:05,15.08831841,0.0001648,53.2155,113.2102,115.9051,244.2111,-9.9106e-05,-1.865e-05,0.0,0 STARLINK-4525,1 53401U 22097P   24080.38201117 -.00001865  00000-0 -99106-4 0  9991,2 53401  53.2155 113.2102 0001648 115.9051 244.2111 15.08831841 89435,6917.905,95.438,540.91,538.63,0.0
53401.0,STARLINK-4525,PAYLOAD,2024-03-21 09:00:52,15.08850141,0.0001336,53.2151,108.7592,90.9351,269.1795,0.00020376,2.957e-05,0.0,0 STARLINK-4525,1 53401U 22097P   24081.37560691  .00002957  00000-0  20376-3 0  9999,2 53401  53.2151 108.7592 0001336  90.9351 269.1795 15.08850141 89586,6917.849,95.437,540.639,538.79,0.0
53401.0,STARLINK-4525,PAYLOAD,2024-03-21 18:33:11,15.08844728,0.0001431,53.2144,106.9754,89.7341,270.3815,0.00021431,3.125e-05,0.0,0 STARLINK-4525,1 53401U 22097P   24081.77304791  .00003125  00000-0  21431-3 0  9991,2 53401  53.2144 106.9754 0001431  89.7341 270.3815 15.08844728 90133,6917.866,95.437,540.721,538.741,0.0
53401.0,STARLINK-4525,PAYLOAD,2024-03-22 10:27:02,15.08850601,0.0001604,53.2164,104.0022,90.1643,269.9533,0.0002747,4.088e-05,0.0,0 STARLINK-4525,1 53401U 22097P   24082.43544655  .00004088  00000-0  27470-3 0  9998,2 53401  53.2164 104.0022 0001604  90.1643 269.9533 15.08850601 90234,6917.848,95.437,540.823,538.603,0.0
53401.0,STARLINK-4525,PAYLOAD,2024-03-23 05:31:40,15.08839306,0.0001787,53.2152,100.4311,127.6642,232.4512,-0.00010974,-2.034e-05,0.0,0 STARLINK-4525,1 53401U 22097P   24083.23033069 -.00002034  00000-0 -10974-3 0  9991,2 53401  53.2152 100.4311 0001787 127.6642 232.4512 15.08839306 89867,6917.883,95.438,540.984,538.511,0.0
53401.0,STARLINK-4525,PAYLOAD,2024-03-23 18:14:46,15.08841443,0.0001419,53.2147,98.054,83.0756,277.0398,8.9756e-05,1.141e-05,0.0,0 STARLINK-4525,1 53401U 22097P   24083.76025479  .00001141  00000-0  89756-4 0  9996,2 53401  53.2147  98.0540 0001419  83.0756 277.0398 15.08841443 90437,6917.876,95.437,540.723,538.759,0.0
53401.0,STARLINK-4525,PAYLOAD,2024-03-24 10:08:36,15.08868559,0.0001388,53.2144,95.0752,87.07,273.0451,0.0010662,0.00016735,0.0,0 STARLINK-4525,1 53401U 22097P   24084.42264670  .00016735  00000-0  10662-2 0  9991,2 53401  53.2144  95.0752 0001388  87.0700 273.0451 15.08868559 90044,6917.793,95.436,540.618,538.698,0.0
53401.0,STARLINK-4525,PAYLOAD,2024-03-24 18:05:32,15.08852749,0.0001019,53.2158,93.5881,111.1468,248.9633,0.00033348,5.025e-05,0.0,0 STARLINK-4525,1 53401U 22097P   24084.75384659  .00005025  00000-0  33348-3 0  9994,2 53401  53.2158  93.5881 0001019 111.1468 248.9633 15.08852749 90098,6917.841,95.437,540.411,539.001,0.0
53401.0,STARLINK-4525,PAYLOAD,2024-03-25 05:13:14,15.08838066,0.0002314,53.2151,91.5058,105.2678,254.857,0.00070954,0.00011022,0.0,0 STARLINK-4525,1 53401U 22097P   24085.21753387  .00011022  00000-0  70954-3 0  9992,2 53401  53.2151  91.5058 0002314 105.2678 254.8570 15.08838066 90161,6917.886,95.438,541.352,538.151,0.0
53401.0,STARLINK-4525,PAYLOAD,2024-03-25 17:56:20,15.08832682,0.0001361,53.2134,89.1297,95.6063,264.5085,6.8592e-05,8.04e-06,0.0,0 STARLINK-4525,1 53401U 22097P   24085.74745895  .00000804  00000-0  68592-4 0  9997,2 53401  53.2134  89.1297 0001361  95.6063 264.5085 15.08832682 90247,6917.903,95.438,540.709,538.826,0.0
53401.0,STARLINK-4525,PAYLOAD,2024-03-26 09:50:12,15.0883462,0.0001607,53.2164,86.1542,99.0478,261.0696,0.00011482,1.54e-05,0.0,0 STARLINK-4525,1 53401U 22097P   24086.40986526  .00001540  00000-0  11482-3 0  9992,2 53401  53.2164  86.1542 0001607  99.0478 261.0696 15.08834620 90830,6917.897,95.438,540.874,538.65,0.0
53401.0,STARLINK-4525,PAYLOAD,2024-03-27 04:54:49,15.0886026,0.0001648,53.216,82.5871,93.2858,266.8323,0.00097101,0.00015208,0.0,0 STARLINK-4525,1 53401U 22097P   24087.20474269  .00015208  00000-0  97101-3 0  9995,2 53401  53.2160  82.5871 0001648  93.2858 266.8323 15.08860260 90462,6917.818,95.436,540.824,538.543,0.0
53401.0,STARLINK-4525,PAYLOAD,2024-03-27 06:30:12,15.08869238,0.0001594,53.2158,82.2907,89.8605,270.257,0.0012323,0.00019394,0.0,0 STARLINK-4525,1 53401U 22097P   24087.27098140  .00019394  00000-0  12323-2 0  9994,2 53401  53.2158  82.2907 0001594  89.8605 270.2570 15.08869238 90969,6917.791,95.436,540.759,538.553,0.0
53401.0,STARLINK-4525,PAYLOAD,2024-03-28 04:45:37,15.08802064,0.0001332,53.2161,78.1276,91.7703,268.3442,-0.00096678,-0.00015625,0.0,0 STARLINK-4525,1 53401U 22097P   24088.19835185 -.00015625  00000-0 -96678-3 0  9995,2 53401  53.2161  78.1276 0001332  91.7703 268.3442 15.08802064 90619,6917.996,95.44,540.783,538.94,0.0
53401.0,STARLINK-4525,PAYLOAD,2024-03-28 06:21:01,15.0879953,0.0001018,53.2165,77.8305,78.5451,281.5655,0.00093231,0.00014564,0.0,0 STARLINK-4525,1 53401U 22097P   24088.26459773  .00014564  00000-0  93231-3 0  9999,2 53401  53.2165  77.8305 0001018  78.5451 281.5655 15.08799530 91118,6918.004,95.44,540.573,539.165,0.0
53401.0,STARLINK-4525,PAYLOAD,2024-03-28 15:53:19,15.08815343,0.0001258,53.216,76.0459,87.6658,272.4478,0.002192,0.00034746,0.0,0 STARLINK-4525,1 53401U 22097P   24088.66203633  .00034746  00000-0  21920-2 0  9994,2 53401  53.2160  76.0459 0001258  87.6658 272.4478 15.08815343 90684,6917.956,95.439,540.691,538.95,0.0
53401.0,STARLINK-4525,PAYLOAD,2024-03-29 07:47:10,15.08863495,0.0001256,53.2165,73.0727,94.5028,265.6108,0.0019855,0.00031473,0.0,0 STARLINK-4525,1 53401U 22097P   24089.32443248  .00031473  00000-0  19855-2 0  9994,2 53401  53.2165  73.0727 0001256  94.5028 265.6108 15.08863495 91271,6917.809,95.436,540.542,538.805,0.0
53401.0,STARLINK-4525,PAYLOAD,2024-03-29 15:44:06,15.08864211,0.0001342,53.2171,71.5848,83.4484,276.6661,0.00058124,8.981e-05,0.0,0 STARLINK-4525,1 53401U 22097P   24089.65562688  .00008981  00000-0  58124-3 0  9991,2 53401  53.2171  71.5848 0001342  83.4484 276.6661 15.08864211 90838,6917.806,95.436,540.6,538.743,0.0
53401.0,STARLINK-4525,PAYLOAD,2024-03-30 04:27:10,15.08857397,0.0001443,53.2174,69.2069,96.0212,264.0944,0.00029632,4.433e-05,0.0,0 STARLINK-4525,1 53401U 22097P   24090.18554392  .00004433  00000-0  29632-3 0  9994,2 53401  53.2174  69.2069 0001443  96.0212 264.0944 15.08857397 90912,6917.827,95.436,540.69,538.694,0.0
53401.0,STARLINK-4525,PAYLOAD,2024-03-30 07:37:57,15.08860029,0.000141,53.2171,68.6118,94.5067,265.6086,0.00043367,6.624e-05,0.0,0 STARLINK-4525,1 53401U 22097P   24090.31802158  .00006624  00000-0  43367-3 0  9990,2 53401  53.2171  68.6118 0001410  94.5067 265.6086 15.08860029 91429,6917.819,95.436,540.66,538.709,0.0
53401.0,STARLINK-4525,PAYLOAD,2024-03-30 15:34:52,15.08846899,0.0001494,53.2176,67.124,95.198,264.9182,0.00018777,2.702e-05,0.0,0 STARLINK-4525,1 53401U 22097P   24090.64922286  .00002702  00000-0  18777-3 0  9991,2 53401  53.2176  67.1240 0001494  95.1980 264.9182 15.08846899 90985,6917.859,95.437,540.758,538.691,0.0
53401.0,STARLINK-4525,PAYLOAD,2024-03-31 07:28:44,15.08855608,0.0001589,53.2177,64.1493,85.8335,274.2839,0.00021164,3.083e-05,0.0,0 STARLINK-4525,1 53401U 22097P   24091.31162067  .00003083  00000-0  21164-3 0  9996,2 53401  53.2177  64.1493 0001589  85.8335 274.2839 15.08855608 91575,6917.833,95.437,540.797,538.598,0.0
53401.0,STARLINK-4525,PAYLOAD,2024-03-31 15:25:39,15.08851088,0.0001616,53.2175,62.6666,88.3085,271.8093,0.00014276,1.985e-05,0.0,0 STARLINK-4525,1 53401U 22097P   24091.64282061  .00001985  00000-0  14276-3 0  9994,2 53401  53.2175  62.6666 0001616  88.3085 271.8093 15.08851088 91628,6917.846,95.437,540.829,538.594,0.0
